[{"OBJECT_NAME":"STARLINK-1595","OBJECT_ID":"2020-057AU","EPOCH":"2026-03-09T22:28:07.003488","MEAN_MOTION":15.50215839,"ECCENTRICITY":0.00065785,"INCLINATION":53.0492,"RA_OF_ASC_NODE":295.4863,"ARG_OF_PERICENTER":121.0092,"MEAN_ANOMALY":239.1563,"EPHEMERIS_TYPE":0,"CLASSIFICATION_TYPE":"U","NORAD_CAT_ID":46159,"ELEMENT_SET_NO":999,"REV_AT_EPOCH":30764,"BSTAR":0.0019946424,"MEAN_MOTION_DOT":0.00115887,"MEAN_MOTION_DDOT":0},{"OBJECT_NAME":"CZ-4C R\/B","OBJECT_ID":"2013-037D","EPOCH":"2026-03-09T18:06:56.075616","MEAN_MOTION":15.35625196,"ECCENTRICITY":0.00667653,"INCLINATION":97.9623,"RA_OF_ASC_NODE":344.221,"ARG_OF_PERICENTER":268.5523,"MEAN_ANOMALY":90.807,"EPHEMERIS_TYPE":0,"CLASSIFICATION_TYPE":"U","NORAD_CAT_ID":39211,"ELEMENT_SET_NO":999,"REV_AT_EPOCH":69561,"BSTAR":0.000391022,"MEAN_MOTION_DOT":0.00014492,"MEAN_MOTION_DDOT":0}]
